{"type": "FeatureCollection", "features": [ {"type": "Feature", "properties": {"norad_id": 30996, "name": "FENGYUN 1C DEB", "group": "fengyun-1c-debris", "lat": -41.362691180989735, "lon": 77.76235344959825, "alt_km": 749.2125738776103, "timestamp": "2025-12-26T06:43:29.791535+00:00", "meta": {"OBJECT_NAME": "FENGYUN 1C DEB", "OBJECT_ID": "1999-025BCN", "EPOCH": "2025-12-25T16:27:19.582848", "MEAN_MOTION": 14.35474873, "ECCENTRICITY": 0.00494939, "INCLINATION": 98.9435, "RA_OF_ASC_NODE": 265.1161, "ARG_OF_PERICENTER": 253.3261, "MEAN_ANOMALY": 138.0612, "EPHEMERIS_TYPE": 0, "CLASSIFICATION_TYPE": "U", "NORAD_CAT_ID": 30996, "ELEMENT_SET_NO": 999, "REV_AT_EPOCH": 97749, "BSTAR": 0.00088809338, "MEAN_MOTION_DOT": 2.542e-05, "MEAN_MOTION_DDOT": 0}, "tle": {"line1": "1 30996U 99025BCN 25359.68564332  .00002542  00000+0  88809-3 0  9991", "line2": "2 30996  98.9435 265.1161 0049493 253.3261 138.0612 14.35474873977493"}}, "geometry": {"type": "Point", "coordinates": [77.76235344959825, -41.362691180989735]}}, {"type": "Feature", "properties": {"norad_id": 30998, "name": "FENGYUN 1C DEB", "group": "fengyun-1c-debris", "lat": 51.4481338874545, "lon": -84.39399300129645, "alt_km": 719.2503442974385, "timestamp": "2025-12-26T06:43:29.791545+00:00", "meta": {"OBJECT_NAME": "FENGYUN 1C DEB", "OBJECT_ID": "1999-025BCQ", "EPOCH": "2025-12-25T22:08:06.167904", "MEAN_MOTION": 14.4812188, "ECCENTRICITY": 0.00127033, "INCLINATION": 98.8285, "RA_OF_ASC_NODE": 83.9861, "ARG_OF_PERICENTER": 159.9387, "MEAN_ANOMALY": 262.9391, "EPHEMERIS_TYPE": 0, "CLASSIFICATION_TYPE": "U", "NORAD_CAT_ID": 30998, "ELEMENT_SET_NO": 999, "REV_AT_EPOCH": 97381, "BSTAR": 0.0024208477, "MEAN_MOTION_DOT": 8.985e-05, "MEAN_MOTION_DDOT": 0}, "tle": {"line1": "1 30998U 99025BCQ 25359.92229361  .00008985  00000+0  24208-2 0  9999", "line2": "2 30998  98.8285  83.9861 0012703 159.9387 262.9391 14.48121880973818"}}, "geometry": {"type": "Point", "coordinates": [-84.39399300129645, 51.4481338874545]}}, {"type": "Feature", "properties": {"norad_id": 30999, "name": "FENGYUN 1C DEB", "group": "fengyun-1c-debris", "lat": 31.814451844375995, "lon": 169.57794923332725, "alt_km": 703.0804144573058, "timestamp": "2025-12-26T06:43:29.791555+00:00", "meta": {"OBJECT_NAME": "FENGYUN 1C DEB", "OBJECT_ID": "1999-025BCR", "EPOCH": "2025-12-25T10:49:13.395936", "MEAN_MOTION": 14.58489282, "ECCENTRICITY": 0.0112594, "INCLINATION": 99.0916, "RA_OF_ASC_NODE": 174.3725, "ARG_OF_PERICENTER": 299.2705, "MEAN_ANOMALY": 59.7274, "EPHEMERIS_TYPE": 0, "CLASSIFICATION_TYPE": "U", "NORAD_CAT_ID": 30999, "ELEMENT_SET_NO": 999, "REV_AT_EPOCH": 99016, "BSTAR": 0.00066851, "MEAN_MOTION_DOT": 3.327e-05, "MEAN_MOTION_DDOT": 0}, "tle": {"line1": "1 30999U 99025BCR 25359.45084949  .00003327  00000+0  66851-3 0  9995", "line2": "2 30999  99.0916 174.3725 0112594 299.2705  59.7274 14.58489282990161"}}, "geometry": {"type": "Point", "coordinates": [169.57794923332725, 31.814451844375995]}}, {"type": "Feature", "properties": {"norad_id": 31000, "name": "FENGYUN 1C DEB", "group": "fengyun-1c-debris", "lat": 4.845832165554338, "lon": -152.5718767989529, "alt_km": 963.5723873358656, "timestamp": "2025-12-26T06:43:29.791565+00:00", "meta": {"OBJECT_NAME": "FENGYUN 1C DEB", "OBJECT_ID": "1999-025BCS", "EPOCH": "2025-12-25T01:12:10.495008", "MEAN_MOTION": 14.09669303, "ECCENTRICITY": 0.01647769, "INCLINATION": 97.5649, "RA_OF_ASC_NODE": 25.7475, "ARG_OF_PERICENTER": 30.4254, "MEAN_ANOMALY": 24.7095, "EPHEMERIS_TYPE": 0, "CLASSIFICATION_TYPE": "U", "NORAD_CAT_ID": 31000, "ELEMENT_SET_NO": 999, "REV_AT_EPOCH": 70130, "BSTAR": 0.00053920853, "MEAN_MOTION_DOT": 1.039e-05, "MEAN_MOTION_DDOT": 0}, "tle": {"line1": "1 31000U 99025BCS 25359.05012147  .00001039  00000+0  53921-3 0  9998", "line2": "2 31000  97.5649  25.7475 0164776  30.4254  24.7095 14.09669303701304"}}, "geometry": {"type": "Point", "coordinates": [-152.5718767989529, 4.845832165554338]}}, {"type": "Feature", "properties": {"norad_id": 31001, "name": "FENGYUN 1C DEB", "group": "fengyun-1c-debris", "lat": 57.98598939151098, "lon": 69.49829398815871, "alt_km": 639.3916359437262, "timestamp": "2025-12-26T06:43:29.791576+00:00", "meta": {"OBJECT_NAME": "FENGYUN 1C DEB", "OBJECT_ID": "1999-025BCT", "EPOCH": "2025-12-23T03:16:58.668960", "MEAN_MOTION": 14.42886652, "ECCENTRICITY": 0.014716, "INCLINATION": 99.2722, "RA_OF_ASC_NODE": 230.9335, "ARG_OF_PERICENTER": 122.0416, "MEAN_ANOMALY": 239.5163, "EPHEMERIS_TYPE": 0, "CLASSIFICATION_TYPE": "U", "NORAD_CAT_ID": 31001, "ELEMENT_SET_NO": 999, "REV_AT_EPOCH": 98356, "BSTAR": 0.00031638475, "MEAN_MOTION_DOT": 1.148e-05, "MEAN_MOTION_DDOT": 0}, "tle": {"line1": "1 31001U 99025BCT 25357.13679015  .00001148  00000+0  31638-3 0  9991", "line2": "2 31001  99.2722 230.9335 0147160 122.0416 239.5163 14.42886652983564"}}, "geometry": {"type": "Point", "coordinates": [69.49829398815871, 57.98598939151098]}}, {"type": "Feature", "properties": {"norad_id": 31002, "name": "FENGYUN 1C DEB", "group": "fengyun-1c-debris", "lat": -16.359233213226336, "lon": -170.79866103378305, "alt_km": 929.5758891299811, "timestamp": "2025-12-26T06:43:29.791586+00:00", "meta": {"OBJECT_NAME": "FENGYUN 1C DEB", "OBJECT_ID": "1999-025BCU", "EPOCH": "2025-12-20T21:37:46.056000", "MEAN_MOTION": 13.9920967, "ECCENTRICITY": 0.0098565, "INCLINATION": 98.885, "RA_OF_ASC_NODE": 6.6158, "ARG_OF_PERICENTER": 325.1028, "MEAN_ANOMALY": 152.4938, "EPHEMERIS_TYPE": 0, "CLASSIFICATION_TYPE": "U", "NORAD_CAT_ID": 31002, "ELEMENT_SET_NO": 999, "REV_AT_EPOCH": 95719, "BSTAR": 0.00023571, "MEAN_MOTION_DOT": 3.13e-06, "MEAN_MOTION_DDOT": 0}, "tle": {"line1": "1 31002U 99025BCU 25354.90122750  .00000313  00000+0  23571-3 0  9993", "line2": "2 31002  98.8850   6.6158 0098565 325.1028 152.4938 13.99209670957195"}}, "geometry": {"type": "Point", "coordinates": [-170.79866103378305, -16.359233213226336]}}, {"type": "Feature", "properties": {"norad_id": 31003, "name": "FENGYUN 1C DEB", "group": "fengyun-1c-debris", "lat": -4.679471823981974, "lon": 77.89759628626442, "alt_km": 843.0044814749281, "timestamp": "2025-12-26T06:43:29.791596+00:00", "meta": {"OBJECT_NAME": "FENGYUN 1C DEB", "OBJECT_ID": "1999-025BCV", "EPOCH": "2025-12-25T03:46:49.245024", "MEAN_MOTION": 14.24771344, "ECCENTRICITY": 0.0042103, "INCLINATION": 98.8424, "RA_OF_ASC_NODE": 76.0372, "ARG_OF_PERICENTER": 179.529, "MEAN_ANOMALY": 180.5935, "EPHEMERIS_TYPE": 0, "CLASSIFICATION_TYPE": "U", "NORAD_CAT_ID": 31003, "ELEMENT_SET_NO": 999, "REV_AT_EPOCH": 96686, "BSTAR": 0.0014380892, "MEAN_MOTION_DOT": 3.338e-05, "MEAN_MOTION_DDOT": 0}, "tle": {"line1": "1 31003U 99025BCV 25359.15751441  .00003338  00000+0  14381-2 0  9999", "line2": "2 31003  98.8424  76.0372 0042103 179.5290 180.5935 14.24771344966865"}}, "geometry": {"type": "Point", "coordinates": [77.89759628626442, -4.679471823981974]}}, {"type": "Feature", "properties": {"norad_id": 31005, "name": "FENGYUN 1C DEB", "group": "fengyun-1c-debris", "lat": 64.08273771633242, "lon": 114.7258673973566, "alt_km": 1042.0173140165389, "timestamp": "2025-12-26T06:43:29.791606+00:00", "meta": {"OBJECT_NAME": "FENGYUN 1C DEB", "OBJECT_ID": "1999-025BCX", "EPOCH": "2025-12-25T08:06:17.154720", "MEAN_MOTION": 13.83315917, "ECCENTRICITY": 0.0181141, "INCLINATION": 98.6135, "RA_OF_ASC_NODE": 132.0365, "ARG_OF_PERICENTER": 290.9603, "MEAN_ANOMALY": 122.0502, "EPHEMERIS_TYPE": 0, "CLASSIFICATION_TYPE": "U", "NORAD_CAT_ID": 31005, "ELEMENT_SET_NO": 999, "REV_AT_EPOCH": 94455, "BSTAR": 0.0012807, "MEAN_MOTION_DOT": 1.556e-05, "MEAN_MOTION_DDOT": 0}, "tle": {"line1": "1 31005U 99025BCX 25359.33769855  .00001556  00000+0  12807-2 0  9990", "line2": "2 31005  98.6135 132.0365 0181141 290.9603 122.0502 13.83315917944558"}}, "geometry": {"type": "Point", "coordinates": [114.7258673973566, 64.08273771633242]}}, {"type": "Feature", "properties": {"norad_id": 31007, "name": "FENGYUN 1C DEB", "group": "fengyun-1c-debris", "lat": -23.960418154334967, "lon": 168.1028045834717, "alt_km": 743.7338935216376, "timestamp": "2025-12-26T06:43:29.791616+00:00", "meta": {"OBJECT_NAME": "FENGYUN 1C DEB", "OBJECT_ID": "1999-025BCZ", "EPOCH": "2025-12-25T05:05:59.915328", "MEAN_MOTION": 14.5889759, "ECCENTRICITY": 0.0066523, "INCLINATION": 98.0882, "RA_OF_ASC_NODE": 350.6863, "ARG_OF_PERICENTER": 359.6515, "MEAN_ANOMALY": 0.4627, "EPHEMERIS_TYPE": 0, "CLASSIFICATION_TYPE": "U", "NORAD_CAT_ID": 31007, "ELEMENT_SET_NO": 999, "REV_AT_EPOCH": 98276, "BSTAR": 0.0024947, "MEAN_MOTION_DOT": 0.0001202, "MEAN_MOTION_DDOT": 0}, "tle": {"line1": "1 31007U 99025BCZ 25359.21249902  .00012020  00000+0  24947-2 0  9991", "line2": "2 31007  98.0882 350.6863 0066523 359.6515   0.4627 14.58897590982762"}}, "geometry": {"type": "Point", "coordinates": [168.1028045834717, -23.960418154334967]}}, {"type": "Feature", "properties": {"norad_id": 31009, "name": "FENGYUN 1C DEB", "group": "fengyun-1c-debris", "lat": 28.62645236226278, "lon": -179.35706143368046, "alt_km": 865.1512178023122, "timestamp": "2025-12-26T06:43:29.791627+00:00", "meta": {"OBJECT_NAME": "FENGYUN 1C DEB", "OBJECT_ID": "1999-025BDB", "EPOCH": "2025-12-25T13:27:28.088064", "MEAN_MOTION": 14.00367791, "ECCENTRICITY": 0.0053273, "INCLINATION": 98.8964, "RA_OF_ASC_NODE": 355.0387, "ARG_OF_PERICENTER": 201.0134, "MEAN_ANOMALY": 285.2773, "EPHEMERIS_TYPE": 0, "CLASSIFICATION_TYPE": "U", "NORAD_CAT_ID": 31009, "ELEMENT_SET_NO": 999, "REV_AT_EPOCH": 96040, "BSTAR": 7.6081e-05, "MEAN_MOTION_DOT": 7.1e-07, "MEAN_MOTION_DDOT": 0}, "tle": {"line1": "1 31009U 99025BDB 25359.56074176  .00000071  00000+0  76081-4 0  9991", "line2": "2 31009  98.8964 355.0387 0053273 201.0134 285.2773 14.00367791960402"}}, "geometry": {"type": "Point", "coordinates": [-179.35706143368046, 28.62645236226278]}}]}